NORAD_CAT_ID,OBJECT_NAME,OBJECT_TYPE,EPOCH,MEAN_MOTION,ECCENTRICITY,INCLINATION,RA_OF_ASC_NODE,ARG_OF_PERICENTER,MEAN_ANOMALY,BSTAR,MEAN_MOTION_DOT,MEAN_MOTION_DDOT,TLE_LINE0,TLE_LINE1,TLE_LINE2,SEMIMAJOR_AXIS,PERIOD,APOGEE,PERIGEE,DECAYED
53243.0,STARLINK-4047,PAYLOAD,2022-11-20 20:44:40,15.08837899,0.0002089,53.217,212.7805,40.762,319.3528,3.0713e-05,2.01e-06,0.0,0 STARLINK-4047,1 53243U 22086B   22324.86436029  .00000201  00000-0  30713-4 0  9997,2 53243  53.2170 212.7805 0002089  40.7620 319.3528 15.08837899 19379,6917.887,95.438,541.197,538.307,0.0
53243.0,STARLINK-4047,PAYLOAD,2022-11-21 01:30:49,15.08841809,0.000216,53.2169,211.888,41.7961,318.3195,6.1757e-05,6.95e-06,0.0,0 STARLINK-4047,1 53243U 22086B   22325.06307743  .00000695  00000-0  61757-4 0  9999,2 53243  53.2169 211.8880 0002160  41.7961 318.3195 15.08841809 18889,6917.875,95.437,541.234,538.246,0.0
53243.0,STARLINK-4047,PAYLOAD,2022-11-22 09:18:32,15.08840104,0.0002129,53.2164,205.941,43.125,316.9909,0.00018151,2.602e-05,0.0,0 STARLINK-4047,1 53243U 22086B   22326.38787772  .00002602  00000-0  18151-3 0  9998,2 53243  53.2164 205.9410 0002129  43.1250 316.9909 15.08840104 19086,6917.88,95.438,541.2180000000002,538.2719999999998,0.0
53243.0,STARLINK-4047,PAYLOAD,2022-11-22 20:26:14,15.08842703,0.000218,53.2166,203.8598,44.6067,315.51,0.00013098,1.797e-05,0.0,0 STARLINK-4047,1 53243U 22086B   22326.85155669  .00001797  00000-0  13098-3 0  9993,2 53243  53.2166 203.8598 0002180  44.6067 315.5100 15.08842703 19671,6917.871999999999,95.437,541.245,538.229,0.0
53243.0,STARLINK-4047,PAYLOAD,2022-11-23 09:09:20,15.08837605,0.0002123,53.2165,201.4797,44.1495,315.9666,2.8246e-05,1.61e-06,0.0,0 STARLINK-4047,1 53243U 22086B   22327.38148185  .00000161  00000-0  28246-4 0  9993,2 53243  53.2165 201.4797 0002123  44.1495 315.9666 15.08837605 19230,6917.888000000001,95.438,541.221,538.284,0.0
53243.0,STARLINK-4047,PAYLOAD,2022-11-23 15:30:52,15.08835976,0.0002124,53.2164,200.2906,44.2982,315.8179,1.6235e-05,-3e-07,0.0,0 STARLINK-4047,1 53243U 22086B   22327.64644355 -.00000030  00000-0  16235-4 0  9993,2 53243  53.2164 200.2906 0002124  44.2982 315.8179 15.08835976 19799,6917.893,95.438,541.227,538.288,0.0
53243.0,STARLINK-4047,PAYLOAD,2022-11-24 09:00:06,15.0884133,0.0002149,53.2162,197.0199,44.8714,315.2452,3.9356e-05,3.38e-06,0.0,0 STARLINK-4047,1 53243U 22086B   22328.37508012  .00000338  00000-0  39356-4 0  9992,2 53243  53.2162 197.0199 0002149  44.8714 315.2452 15.08841330 19902,6917.876,95.437,541.2280000000002,538.255,0.0
53243.0,STARLINK-4047,PAYLOAD,2022-11-24 21:43:11,15.08845399,0.0002155,53.2161,194.6408,45.4339,314.6829,6.908e-05,8.11e-06,0.0,0 STARLINK-4047,1 53243U 22086B   22328.90499544  .00000811  00000-0  69080-4 0  9993,2 53243  53.2161 194.6408 0002155  45.4339 314.6829 15.08845399 19982,6917.864000000001,95.437,541.22,538.238,0.0
53243.0,STARLINK-4047,PAYLOAD,2022-11-25 00:53:57,15.08843988,0.0002178,53.216,194.0461,45.8953,314.2218,9.4055e-05,1.209e-05,0.0,0 STARLINK-4047,1 53243U 22086B   22329.03747550  .00001209  00000-0  94055-4 0  9993,2 53243  53.2160 194.0461 0002178  45.8953 314.2218 15.08843988 19480,6917.868,95.437,541.24,538.226,0.0
53243.0,STARLINK-4047,PAYLOAD,2022-11-25 21:33:58,15.08839154,0.0002201,53.2161,190.1806,45.4791,314.6381,0.00010994,1.462e-05,0.0,0 STARLINK-4047,1 53243U 22086B   22329.89859849  .00001462  00000-0  10994-3 0  9992,2 53243  53.2161 190.1806 0002201  45.4791 314.6381 15.08839154 20133,6917.8830000000025,95.438,541.271,538.225,0.0
53243.0,STARLINK-4047,PAYLOAD,2022-11-26 00:44:45,15.08838914,0.0002183,53.2168,189.5855,45.6029,314.5142,6.22e-05,7.02e-06,0.0,0 STARLINK-4047,1 53243U 22086B   22330.03107968  .00000702  00000-0  62200-4 0  9992,2 53243  53.2168 189.5855 0002183  45.6029 314.5142 15.08838914 19631,6917.884,95.438,541.259,538.239,0.0
53243.0,STARLINK-4047,PAYLOAD,2022-11-26 13:27:49,15.08843836,0.0002196,53.2169,187.2067,45.2057,314.9114,7.6423e-05,9.28e-06,0.0,0 STARLINK-4047,1 53243U 22086B   22330.56099518  .00000928  00000-0  76423-4 0  9993,2 53243  53.2169 187.2067 0002196  45.2057 314.9114 15.08843836 20233,6917.869000000002,95.437,541.253,538.214,0.0
53243.0,STARLINK-4047,PAYLOAD,2022-11-26 15:03:13,15.08845457,0.0002208,53.2169,186.9095,45.6845,314.4328,7.1125e-05,8.44e-06,0.0,0 STARLINK-4047,1 53243U 22086B   22330.62723392  .00000844  00000-0  71125-4 0  9995,2 53243  53.2169 186.9095 0002208  45.6845 314.4328 15.08845457 19728,6917.864000000001,95.437,541.256,538.201,0.0
53243.0,STARLINK-4047,PAYLOAD,2022-11-26 21:24:45,15.08848527,0.0002188,53.2164,185.7204,44.3797,315.737,9.6202e-05,1.243e-05,0.0,0 STARLINK-4047,1 53243U 22086B   22330.89218989  .00001243  00000-0  96202-4 0  9992,2 53243  53.2164 185.7204 0002188  44.3797 315.7370 15.08848527 20286,6917.854,95.437,541.2330000000002,538.206,0.0
53243.0,STARLINK-4047,PAYLOAD,2022-11-27 00:35:31,15.08850743,0.0002216,53.2163,185.1254,44.5005,315.6164,7.3358e-05,8.8e-06,0.0,0 STARLINK-4047,1 53243U 22086B   22331.02466822  .00000880  00000-0  73358-4 0  9992,2 53243  53.2163 185.1254 0002216  44.5005 315.6164 15.08850743 20306,6917.848000000001,95.437,541.246,538.18,0.0
53243.0,STARLINK-4047,PAYLOAD,2022-11-27 21:15:33,15.08833291,0.0002245,53.2161,181.2603,45.6295,314.488,2.5702e-05,1.21e-06,0.0,0 STARLINK-4047,1 53243U 22086B   22331.88580033  .00000121  00000-0  25702-4 0  9995,2 53243  53.2161 181.2603 0002245  45.6295 314.4880 15.08833291 19910,6917.901,95.438,541.319,538.2130000000002,0.0
53243.0,STARLINK-4047,PAYLOAD,2022-11-28 00:26:19,15.08837166,0.0002252,53.2159,180.6653,45.1435,314.974,5.4963e-05,5.86e-06,0.0,0 STARLINK-4047,1 53243U 22086B   22332.01827747  .00000586  00000-0  54963-4 0  9993,2 53243  53.2159 180.6653 0002252  45.1435 314.9740 15.08837166 20450,6917.889,95.438,541.312,538.196,0.0
53243.0,STARLINK-4047,PAYLOAD,2022-11-28 22:41:43,15.08830783,0.0002289,53.2161,176.502,47.0857,313.0327,-7.1899e-05,-1.432e-05,0.0,0 STARLINK-4047,1 53243U 22086B   22332.94564697 -.00001432  00000-0 -71899-4 0  9997,2 53243  53.2161 176.5020 0002289  47.0857 313.0327 15.08830783 20071,6917.909000000002,95.438,541.357,538.19,0.0
53243.0,STARLINK-4047,PAYLOAD,2022-11-29 13:00:12,15.08829539,0.0002227,53.2163,173.8256,46.2538,313.8638,2.8826e-05,1.7e-06,0.0,0 STARLINK-4047,1 53243U 22086B   22333.54180829  .00000170  00000-0  28826-4 0  9993,2 53243  53.2163 173.8256 0002227  46.2538 313.8638 15.08829539 20680,6917.9119999999975,95.438,541.318,538.237,0.0
53243.0,STARLINK-4047,PAYLOAD,2022-11-29 14:35:35,15.08832096,0.0002218,53.2163,173.5282,46.6018,313.5159,3.3527e-06,-2.35e-06,0.0,0 STARLINK-4047,1 53243U 22086B   22333.60804797 -.00000235  00000-0  33527-5 0  9995,2 53243  53.2163 173.5282 0002218  46.6018 313.5159 15.08832096 20691,6917.905,95.438,541.304,538.235,0.0
53243.0,STARLINK-4047,PAYLOAD,2022-11-30 00:07:54,15.08834563,0.0002246,53.2162,171.7441,46.897,313.221,2.2631e-05,7.2e-07,0.0,0 STARLINK-4047,1 53243U 22086B   22334.00548786  .00000072  00000-0  22631-4 0  9994,2 53243  53.2162 171.7441 0002246  46.8970 313.2210 15.08834563 20233,6917.897,95.438,541.316,538.2080000000002,0.0
53243.0,STARLINK-4047,PAYLOAD,2022-11-30 12:50:59,15.08834455,0.0002282,53.2164,169.3652,46.0039,314.1141,5.8e-05,6.35e-06,0.0,0 STARLINK-4047,1 53243U 22086B   22334.53540905  .00000635  00000-0  58000-4 0  9991,2 53243  53.2164 169.3652 0002282  46.0039 314.1141 15.08834455 20839,6917.897,95.438,541.341,538.184,0.0
53243.0,STARLINK-4047,PAYLOAD,2022-11-30 19:12:31,15.08833104,0.0002275,53.2162,168.1757,47.0872,313.0311,0.00011164,1.489e-05,0.0,0 STARLINK-4047,1 53243U 22086B   22334.80036927  .00001489  00000-0  11164-3 0  9992,2 53243  53.2162 168.1757 0002275  47.0872 313.0311 15.08833104 20879,6917.901,95.438,541.34,538.193,0.0
53243.0,STARLINK-4047,PAYLOAD,2022-12-01 12:41:46,15.08839931,0.0002313,53.2163,164.9047,49.1595,310.9598,0.00010362,1.361e-05,0.0,0 STARLINK-4047,1 53243U 22086B   22335.52900848  .00001361  00000-0  10362-3 0  9992,2 53243  53.2163 164.9047 0002313  49.1595 310.9598 15.08839931 20983,6917.880999999999,95.438,541.346,538.145,0.0
53243.0,STARLINK-4047,PAYLOAD,2022-12-01 19:03:18,15.08841508,0.000233,53.2162,163.7154,49.3451,310.7743,0.00011328,1.515e-05,0.0,0 STARLINK-4047,1 53243U 22086B   22335.79396736  .00001515  00000-0  11328-3 0  9990,2 53243  53.2162 163.7154 0002330  49.3451 310.7743 15.08841508 20501,6917.876,95.437,541.3530000000002,538.129,0.0
53243.0,STARLINK-4047,PAYLOAD,2022-12-02 12:32:34,15.08828779,0.0002257,53.2163,160.4443,49.1448,310.9739,-1.379e-05,-5.08e-06,0.0,0 STARLINK-4047,1 53243U 22086B   22336.52262285 -.00000508  00000-0 -13790-4 0  9992,2 53243  53.2163 160.4443 0002257  49.1448 310.9739 15.08828779 20613,6917.915,95.438,541.341,538.2180000000002,0.0
53243.0,STARLINK-4047,PAYLOAD,2022-12-02 18:54:07,15.08830969,0.000226,53.216,159.2546,49.9407,310.1783,-7.3461e-06,-4.05e-06,0.0,0 STARLINK-4047,1 53243U 22086B   22336.78758274 -.00000405  00000-0 -73461-5 0  9996,2 53243  53.2160 159.2546 0002260  49.9407 310.1783 15.08830969 21174,6917.908,95.438,541.336,538.21,0.0
53243.0,STARLINK-4047,PAYLOAD,2022-12-02 22:04:53,15.08832721,0.0002287,53.2158,158.6597,50.7049,309.4146,6.9389e-06,-1.78e-06,0.0,0 STARLINK-4047,1 53243U 22086B   22336.92006181 -.00000178  00000-0  69389-5 0  9995,2 53243  53.2158 158.6597 0002287  50.7049 309.4146 15.08832721 21195,6917.903,95.438,541.35,538.186,0.0
53243.0,STARLINK-4047,PAYLOAD,2022-12-03 15:34:08,15.08835153,0.0002318,53.2155,155.3883,52.4053,307.715,-5.395499999999999e-06,-3.74e-06,0.0,0 STARLINK-4047,1 53243U 22086B   22337.64870398 -.00000374  00000-0 -53955-5 0  9995,2 53243  53.2155 155.3883 0002318  52.4053 307.7150 15.08835153 20785,6917.895,95.438,541.364,538.1569999999998,0.0
